     2.100          NAVIGATION                              RINEX VERSION / TYPE
fic2rin                                 12/11/2013 00:18:14 PGM / RUN BY / DATE
                                                            END OF HEADER
26 13 12 10  8  0  0.0  .226357951760D-03 -.104591890704D-10  .000000000000D+00
     .230000000000D+02  .225937500000D+02  .447375777854D-08  .198417182449D+00
     .113807618618D-05  .212038893951D-01  .528059899807D-05  .515367814445D+04
     .201600000000D+06 -.335276126862D-06 -.278510983958D+01  .145286321640D-06
     .977096527375D+00  .289937500000D+03  .125610136980D+01 -.852892669260D-08
    -.142505935944D-09  .100000000000D+01  .177000000000D+04  .000000000000D+00
     .240000000000D+01  .000000000000D+00 -.605359673500D-08  .230000000000D+02
     .194406000000D+06  .400000000000D+01
27 13 12 10  8  0  0.0 -.684661790729D-05 -.295585778076D-11  .000000000000D+00
     .140000000000D+02 -.325625000000D+02  .482734393539D-08  .112422526049D+01
    -.156462192535D-05  .490600941703D-03  .558421015739D-05  .515366893387D+04
     .201600000000D+06  .104308128357D-06  .257868049034D+00  .111758708954D-07
     .962006713178D+00  .270125000000D+03  .460438629997D+00 -.833070415012D-08
     .225009372544D-10  .100000000000D+01  .177000000000D+04  .000000000000D+00
     .240000000000D+01  .000000000000D+00  .186264514923D-08  .140000000000D+02
     .194406000000D+06  .400000000000D+01
28 13 12 10  8  0  0.0  .315430108458D-03  .306954461848D-11  .000000000000D+00
     .630000000000D+02  .893750000000D+01  .392480634108D-08  .225369237590D+01
     .257045030594D-06  .191608261084D-01  .808946788311D-05  .515366057396D+04
     .201600000000D+06  .245869159698D-06 -.725547787052D+00 -.199303030968D-06
     .985318211830D+00  .232718750000D+03 -.174804826356D+01 -.756174354840D-08
     .278583032673D-09  .100000000000D+01  .177000000000D+04  .000000000000D+00
     .240000000000D+01  .000000000000D+00 -.107102096081D-07  .630000000000D+02
     .194406000000D+06  .400000000000D+01
29 13 12 10  8  0  0.0  .493992120028D-03  .318323145621D-11  .000000000000D+00
     .440000000000D+02 -.274062500000D+02  .465519390751D-08 -.192282495756D+01
    -.154785811901D-05  .150259851944D-02  .567547976971D-05  .515378432465D+04
     .201600000000D+06 -.633299350739D-07  .311243884969D+00  .596046447754D-07
     .968016899984D+00  .271406250000D+03 -.100755634701D+01 -.819426989566D-08
    -.357157734196D-10  .100000000000D+01  .177000000000D+04  .000000000000D+00
     .240000000000D+01  .000000000000D+00 -.931322574615D-08  .440000000000D+02
     .194406000000D+06  .400000000000D+01
30 13 12 10  8  0  0.0  .161724165082D-05  .443378667114D-11  .000000000000D+00
     .142000000000D+03 -.455625000000D+02  .422517599554D-08  .849760619438D+00
    -.271946191788D-05  .222537352238D-01  .792369246483D-05  .515371192360D+04
     .201600000000D+06  .314787030220D-06 -.186132607150D+01 -.433996319771D-06
     .980215253671D+00  .238562500000D+03 -.813361680099D+00 -.817891211309D-08
    -.204294223960D-09  .100000000000D+01  .177000000000D+04  .000000000000D+00
     .485000000000D+01  .630000000000D+02 -.419095158577D-08  .142000000000D+03
     .194406000000D+06  .400000000000D+01
31 13 12 10  8  0  0.0  .330924522132D-03  .454747350886D-12  .000000000000D+00
     .640000000000D+02 -.335937500000D+02  .417553107049D-08 -.135672951529D+01
    -.191666185856D-05  .818883732427D-02  .832043588161D-05  .515373093033D+04
     .201600000000D+06 -.139698386192D-06 -.180585577721D+01 -.931322574615D-07
     .979334932477D+00  .233656250000D+03 -.708713093408D+00 -.801569102856D-08
    -.485734518507D-10  .100000000000D+01  .177000000000D+04  .000000000000D+00
     .240000000000D+01  .000000000000D+00 -.130385160446D-07  .640000000000D+02
     .194406000000D+06  .400000000000D+01
32 13 12 10  8  0  0.0 -.518568325788D-03  .534328137292D-11  .000000000000D+00
     .660000000000D+02  .602187500000D+02  .478769942690D-08 -.855167994757D+00
     .308081507683D-05  .115662737517D-01  .836886465549D-05  .515353966331D+04
     .201600000000D+06 -.931322574615D-08  .244108618389D+01 -.257045030594D-06
     .948369415713D+00  .213312500000D+03 -.222466184918D+00 -.823712882376D-08
     .188936441390D-09  .100000000000D+01  .177000000000D+04  .000000000000D+00
     .240000000000D+01  .000000000000D+00 -.325962901115D-08  .660000000000D+02
     .194406000000D+06  .400000000000D+01
15 13 12 10  7 59 44.0 -.151463784277D-03 -.193267624127D-11  .000000000000D+00
     .800000000000D+01  .346250000000D+02  .526557647525D-08  .734450265304D+00
     .184774398804D-05  .596328557003D-02  .428222119808D-05  .515361098289D+04
     .201584000000D+06  .316649675369D-07 -.291401907641D+01  .117346644402D-06
     .938900156183D+00  .283500000000D+03  .199903119544D+00 -.865214611090D-08
    -.428589281035D-10  .100000000000D+01  .177000000000D+04  .000000000000D+00
     .240000000000D+01  .000000000000D+00 -.102445483208D-07  .800000000000D+01
     .197406000000D+06  .400000000000D+01
 4 13 12 10  7 59 44.0  .403448939323D-05  .341060513165D-12  .000000000000D+00
     .300000000000D+01 -.350000000000D+02  .494663461862D-08 -.300296934520D+01
    -.187568366528D-05  .106749077095D-01  .101607292891D-04  .515365789795D+04
     .201584000000D+06  .145286321640D-06  .130169471562D+01 -.122934579849D-06
     .937723727203D+00  .169031250000D+03  .106393420202D+01 -.810355183117D-08
    -.262868092368D-09  .100000000000D+01  .177000000000D+04  .000000000000D+00
     .240000000000D+01  .000000000000D+00 -.651925802231D-08  .300000000000D+01
     .200736000000D+06  .400000000000D+01
 4 13 12 10  9 59 44.0  .403681769967D-05  .341060513165D-12  .000000000000D+00
     .330000000000D+02 -.265312500000D+02  .502520932014D-08 -.195295187994D+01
    -.142306089401D-05  .106770998100D-01  .913813710213D-05  .515365250587D+04
     .208784000000D+06  .171363353729D-06  .130163596044D+01 -.558793544769D-08
     .937722213083D+00  .188437500000D+03  .106411233717D+01 -.810962351266D-08
    -.186079179516D-09  .100000000000D+01  .177000000000D+04  .000000000000D+00
     .240000000000D+01  .000000000000D+00 -.651925802231D-08  .330000000000D+02
     .201606000000D+06  .400000000000D+01
15 13 12 10  9 59 44.0 -.151478219777D-03 -.193267624127D-11  .000000000000D+00
     .900000000000D+01  .365000000000D+02  .526271921338D-08  .178457090286D+01
     .194460153580D-05  .596354634035D-02  .464171171188D-05  .515361225128D+04
     .208784000000D+06 -.540167093277D-07 -.291408096955D+01  .726431608200D-07
     .938899610515D+00  .279093750000D+03  .200006422042D+00 -.862535928084D-08
    -.950039572962D-10  .100000000000D+01  .177000000000D+04  .000000000000D+00
     .240000000000D+01  .000000000000D+00 -.102445483208D-07  .900000000000D+01
     .201606000000D+06  .400000000000D+01
 1 13 12 10 10  0  0.0  .929632224143D-04  .295585778076D-11  .000000000000D+00
     .810000000000D+02 -.354062500000D+02  .459054835762D-08  .189267030703D+00
    -.186078250408D-05  .257173995487D-02  .915676355362D-05  .515368779182D+04
     .208800000000D+06  .186264514923D-08  .131137024514D+01  .335276126862D-07
     .960171472207D+00  .199312500000D+03  .436671049079D+00 -.807462205471D-08
    -.275368613065D-09  .100000000000D+01  .177000000000D+04  .000000000000D+00
     .240000000000D+01  .000000000000D+00  .791624188423D-08  .810000000000D+02
     .201606000000D+06  .400000000000D+01
 2 13 12 10 10  0  0.0  .466072000563D-03  .216004991671D-11  .000000000000D+00
     .630000000000D+02 -.313125000000D+02  .513449958680D-08  .100940163384D+01
    -.149942934513D-05  .128358806251D-01  .968389213085D-05  .515377466011D+04
     .208800000000D+06 -.670552253723D-07  .128542465276D+01  .163912773132D-06
     .938699369214D+00  .184156250000D+03 -.253210732734D+01 -.844606609827D-08
    -.453590322429D-09  .100000000000D+01  .177000000000D+04  .000000000000D+00
     .240000000000D+01  .000000000000D+00 -.204890966415D-07  .630000000000D+02
     .201606000000D+06  .400000000000D+01
 3 13 12 10 10  0  0.0  .297334045172D-03  .488853402203D-11  .000000000000D+00
     .730000000000D+02 -.148437500000D+02  .554165940379D-08  .118151467439D+01
    -.931322574615D-06  .166918489849D-01  .570341944695D-05  .515374580574D+04
     .208800000000D+06 -.350177288055D-06  .113086159818D+00 -.968575477600D-07
     .936801979094D+00  .262156250000D+03  .135475349040D+01 -.880858119848D-08
     .140005831805D-09  .100000000000D+01  .177000000000D+04  .000000000000D+00
     .485000000000D+01  .000000000000D+00 -.465661287308D-08  .730000000000D+02
     .201606000000D+06  .400000000000D+01
 5 13 12 10 10  0  0.0 -.395738519728D-03  .909494701773D-12  .000000000000D+00
     .140000000000D+02  .715625000000D+02  .474734060293D-08 -.304754581666D+01
     .366196036339D-05  .348667765502D-02  .941194593906D-05  .515376073837D+04
     .208800000000D+06  .391155481339D-07  .235219483852D+01  .149011611938D-07
     .947797553721D+00  .193218750000D+03  .352251209362D+00 -.815926843771D-08
     .136434254463D-09  .100000000000D+01  .177000000000D+04  .000000000000D+00
     .240000000000D+01  .000000000000D+00 -.102445483208D-07  .140000000000D+02
     .201606000000D+06  .400000000000D+01
 6 13 12 10 10  0  0.0  .186837743968D-03  .164845914696D-10  .000000000000D+00
     .670000000000D+02 -.129687500000D+02  .523521806785D-08  .302501628722D+01
    -.603497028351D-06  .829299411271D-02  .535883009434D-05  .515367970467D+04
     .208800000000D+06 -.137835741043D-06  .193994978590D+00  .707805156708D-07
     .943301185766D+00  .266281250000D+03 -.198223673497D+00 -.834820487910D-08
     .157863718515D-09  .100000000000D+01  .177000000000D+04  .000000000000D+00
     .240000000000D+01  .000000000000D+00 -.512227416039D-08  .670000000000D+02
     .201606000000D+06  .400000000000D+01
